NORAD_CAT_ID,OBJECT_NAME,OBJECT_TYPE,EPOCH,MEAN_MOTION,ECCENTRICITY,INCLINATION,RA_OF_ASC_NODE,ARG_OF_PERICENTER,MEAN_ANOMALY,BSTAR,MEAN_MOTION_DOT,MEAN_MOTION_DDOT,TLE_LINE0,TLE_LINE1,TLE_LINE2,SEMIMAJOR_AXIS,PERIOD,APOGEE,PERIGEE,DECAYED
51990.0,STARLINK-3657,PAYLOAD,2024-04-24 11:39:52,15.08870274,0.0001622,53.2167,210.622,133.4282,226.6845,0.001684,0.00026637,0.0,0 STARLINK-3657,1 51990U 22025AL  24115.48602451  .00026637  00000-0  16840-2 0  9993,2 51990  53.2167 210.6220 0001622 133.4282 226.6845 15.08870274119148,6917.788,95.436,540.775,538.531,0.0
51990.0,STARLINK-3657,PAYLOAD,2024-04-24 13:15:15,15.08874417,0.0001363,53.2166,210.3255,128.4417,231.6698,0.0017544,0.0002777,0.0,0 STARLINK-3657,1 51990U 22025AL  24115.55226357  .00027770  00000-0  17544-2 0  9999,2 51990  53.2166 210.3255 0001363 128.4417 231.6698 15.08874417118052,6917.775,95.435,540.583,538.697,0.0
51990.0,STARLINK-3657,PAYLOAD,2024-04-25 05:09:07,15.08851891,0.0001729,53.2169,207.3534,140.1283,219.9837,0.0013464,0.00021212,0.0,0 STARLINK-3657,1 51990U 22025AL  24116.21466515  .00021212  00000-0  13464-2 0  9997,2 51990  53.2169 207.3534 0001729 140.1283 219.9837 15.08851891119257,6917.844,95.437,540.905,538.513,0.0
51990.0,STARLINK-3657,PAYLOAD,2024-04-25 13:06:03,15.08839314,0.0001066,53.2162,205.8654,93.0894,267.022,0.00057794,8.922e-05,0.0,0 STARLINK-3657,1 51990U 22025AL  24116.54586960  .00008922  00000-0  57794-3 0  9998,2 51990  53.2162 205.8654 0001066  93.0894 267.0220 15.08839314119306,6917.882,95.438,540.485,539.01,0.0
51990.0,STARLINK-3657,PAYLOAD,2024-04-26 12:56:50,15.08845858,0.000172,53.2177,201.4088,59.8819,300.2343,0.0004269,6.514e-05,0.0,0 STARLINK-3657,1 51990U 22025AL  24117.53947371  .00006514  00000-0  42690-3 0  9999,2 51990  53.2177 201.4088 0001720  59.8819 300.2343 15.08845858119451,6917.862,95.437,540.917,538.538,0.0
51990.0,STARLINK-3657,PAYLOAD,2024-04-26 22:29:09,15.08850786,0.0001454,53.2158,199.6233,88.9252,271.1906,0.0006646,0.00010308,0.0,0 STARLINK-3657,1 51990U 22025AL  24117.93691149  .00010308  00000-0  66460-3 0  9999,2 51990  53.2158 199.6233 0001454  88.9252 271.1906 15.08850786118410,6917.847,95.437,540.718,538.707,0.0
51990.0,STARLINK-3657,PAYLOAD,2024-04-27 14:22:59,15.08868285,0.0001158,53.2153,196.6502,97.6537,262.4587,0.00063752,9.881e-05,0.0,0 STARLINK-3657,1 51990U 22025AL  24118.59929873  .00009881  00000-0  63752-3 0  9995,2 51990  53.2153 196.6502 0001158  97.6537 262.4587 15.08868285118517,6917.794,95.436,540.46,538.858,0.0
51990.0,STARLINK-3657,PAYLOAD,2024-04-27 22:19:56,15.0883534,0.0001824,53.217,195.1624,62.9477,297.1701,-0.00019301,-3.358e-05,0.0,0 STARLINK-3657,1 51990U 22025AL  24118.93051223 -.00003358  00000-0 -19301-3 0  9994,2 51990  53.2170 195.1624 0001824  62.9477 297.1701 15.08835340118567,6917.895,95.438,541.021,538.498,0.0
51990.0,STARLINK-3657,PAYLOAD,2024-04-28 12:38:25,15.08818296,0.000125,53.214,192.4887,68.4085,291.704,-0.00036306,-6.058e-05,0.0,0 STARLINK-3657,1 51990U 22025AL  24119.52668082 -.00006058  00000-0 -36306-3 0  9991,2 51990  53.2140 192.4887 0001250  68.4085 291.7040 15.08818296119753,6917.947,95.439,540.676,538.947,0.0
51990.0,STARLINK-3657,PAYLOAD,2024-04-28 14:13:48,15.08825792,0.0001303,53.2153,192.1891,70.5364,289.5769,-0.00014291,-2.561e-05,0.0,0 STARLINK-3657,1 51990U 22025AL  24119.59291979 -.00002561  00000-0 -14291-3 0  9999,2 51990  53.2153 192.1891 0001303  70.5364 289.5769 15.08825792118663,6917.924,95.438,540.69,538.887,0.0
51990.0,STARLINK-3657,PAYLOAD,2024-04-28 22:10:44,15.0883057,0.0001287,53.2148,190.7036,69.9254,290.1877,1.7532e-05,-9e-08,0.0,0 STARLINK-3657,1 51990U 22025AL  24119.92412195 -.00000009  00000-0  17532-4 0  9997,2 51990  53.2148 190.7036 0001287  69.9254 290.1877 15.08830570118717,6917.909,95.438,540.665,538.884,0.0
51990.0,STARLINK-3657,PAYLOAD,2024-04-29 04:32:16,15.08834855,0.0001224,53.2149,189.5129,69.7751,290.3373,0.00018928,2.725e-05,0.0,0 STARLINK-3657,1 51990U 22025AL  24120.18908247  .00002725  00000-0  18928-3 0  9990,2 51990  53.2149 189.5129 0001224  69.7751 290.3373 15.08834855119857,6917.896,95.438,540.608,538.914,0.0
51990.0,STARLINK-3657,PAYLOAD,2024-04-29 10:53:49,15.08845264,0.0001341,53.2137,188.3241,64.3224,295.7906,0.00094758,0.00014827,0.0,0 STARLINK-3657,1 51990U 22025AL  24120.45404421  .00014827  00000-0  94758-3 0  9996,2 51990  53.2137 188.3241 0001341  64.3224 295.7906 15.08845264118791,6917.864,95.437,540.657,538.802,0.0
51990.0,STARLINK-3657,PAYLOAD,2024-04-29 22:01:31,15.08857141,0.0001368,53.2139,186.2424,61.573,298.54,0.00073669,0.00011461,0.0,0 STARLINK-3657,1 51990U 22025AL  24120.91772046  .00011461  00000-0  73669-3 0  9997,2 51990  53.2139 186.2424 0001368  61.5730 298.5400 15.08857141118868,6917.828,95.436,540.639,538.747,0.0
51990.0,STARLINK-3657,PAYLOAD,2024-04-30 10:44:35,15.08861054,0.0001424,53.2149,183.8635,63.6575,296.4563,0.00056128,8.661e-05,0.0,0 STARLINK-3657,1 51990U 22025AL  24121.44763563  .00008661  00000-0  56128-3 0  9999,2 51990  53.2149 183.8635 0001424  63.6575 296.4563 15.08861054120047,6917.816,95.436,540.666,538.696,0.0
51990.0,STARLINK-3657,PAYLOAD,2024-05-01 04:13:50,15.08847464,0.0001489,53.2153,180.5926,60.4857,299.6283,0.00029188,4.361e-05,0.0,0 STARLINK-3657,1 51990U 22025AL  24122.17627675  .00004361  00000-0  29188-3 0  9992,2 51990  53.2153 180.5926 0001489  60.4857 299.6283 15.08847464120153,6917.858,95.437,540.753,538.693,0.0
51990.0,STARLINK-3657,PAYLOAD,2024-05-01 10:35:22,15.08842872,0.00015,53.216,179.4037,73.6141,286.5016,6.7848e-05,7.92e-06,0.0,0 STARLINK-3657,1 51990U 22025AL  24122.44123665  .00000792  00000-0  67848-4 0  9992,2 51990  53.2160 179.4037 0001500  73.6141 286.5016 15.08842872119095,6917.872,95.437,540.774,538.699,0.0
51990.0,STARLINK-3657,PAYLOAD,2024-05-02 04:04:37,15.08840683,0.0001421,53.2154,176.1314,72.0296,288.0851,1.9397e-05,2.1e-07,0.0,0 STARLINK-3657,1 51990U 22025AL  24123.16987768  .00000021  00000-0  19397-4 0  9995,2 51990  53.2154 176.1314 0001421  72.0296 288.0851 15.08840683120304,6917.878,95.438,540.726,538.76,0.0
51990.0,STARLINK-3657,PAYLOAD,2024-05-02 10:26:09,15.08846211,0.0001341,53.2162,174.9409,75.1895,284.9246,6.0452e-05,6.74e-06,0.0,0 STARLINK-3657,1 51990U 22025AL  24123.43483628  .00000674  00000-0  60452-4 0  9993,2 51990  53.2162 174.9409 0001341  75.1895 284.9246 15.08846211119241,6917.861,95.437,540.654,538.799,0.0
51990.0,STARLINK-3657,PAYLOAD,2024-05-02 19:58:29,15.08831513,0.0001206,53.2151,173.1579,61.7838,298.3275,2.4268e-05,9.8e-07,0.0,0 STARLINK-3657,1 51990U 22025AL  24123.83228729  .00000098  00000-0  24268-4 0  9991,2 51990  53.2151 173.1579 0001206  61.7838 298.3275 15.08831513120406,6917.906,95.438,540.606,538.937,0.0
51990.0,STARLINK-3657,PAYLOAD,2024-05-03 10:16:57,15.08829918,0.0001339,53.214,170.4832,76.8321,283.2821,4.6349e-07,-2.81e-06,0.0,0 STARLINK-3657,1 51990U 22025AL  24124.42844784 -.00000281  00000-0  46349-6 0  9993,2 51990  53.2140 170.4832 0001339  76.8321 283.2821 15.08829918119399,6917.911,95.438,540.703,538.85,0.0
51990.0,STARLINK-3657,PAYLOAD,2024-05-03 19:49:16,15.08836888,0.0001258,53.2159,168.6984,72.5484,287.5646,0.00010403,1.368e-05,0.0,0 STARLINK-3657,1 51990U 22025AL  24124.82588705  .00001368  00000-0  10403-3 0  9990,2 51990  53.2159 168.6984 0001258  72.5484 287.5646 15.08836888119452,6917.89,95.438,540.625,538.885,0.0
51990.0,STARLINK-3657,PAYLOAD,2024-05-04 02:10:48,15.08842281,0.0001462,53.2151,167.5089,81.1241,278.9916,-4.351e-06,-3.57e-06,0.0,0 STARLINK-3657,1 51990U 22025AL  24125.09084447 -.00000357  00000-0 -43510-5 0  9990,2 51990  53.2151 167.5089 0001462  81.1241 278.9916 15.08842281120597,6917.873,95.437,540.75,538.727,0.0
51990.0,STARLINK-3657,PAYLOAD,2024-05-05 11:33:54,15.08848178,0.0001297,53.2154,161.2638,83.5654,276.5486,0.00025411,3.759e-05,0.0,0 STARLINK-3657,1 51990U 22025AL  24126.48188463  .00003759  00000-0  25411-3 0  9992,2 51990  53.2154 161.2638 0001297  83.5654 276.5486 15.08848178120802,6917.855,95.437,540.618,538.823,0.0
51990.0,STARLINK-3657,PAYLOAD,2024-05-05 19:30:50,15.08849326,0.0001289,53.2154,159.7772,85.3394,274.7745,0.0002316,3.401e-05,0.0,0 STARLINK-3657,1 51990U 22025AL  24126.81308323  .00003401  00000-0  23160-3 0  9991,2 51990  53.2154 159.7772 0001289  85.3394 274.7745 15.08849326119751,6917.852,95.437,540.609,538.825,0.0
51990.0,STARLINK-3657,PAYLOAD,2024-05-06 11:24:41,15.08856052,0.0001322,53.2147,156.8026,88.0302,272.0841,0.00031278,4.696e-05,0.0,0 STARLINK-3657,1 51990U 22025AL  24127.47547722  .00004696  00000-0  31278-3 0  9998,2 51990  53.2147 156.8026 0001322  88.0302 272.0841 15.08856052119853,6917.831,95.437,540.611,538.782,0.0
51990.0,STARLINK-3657,PAYLOAD,2024-05-06 19:21:36,15.0885115,0.000133,53.2147,155.3155,87.6965,272.418,0.000198,2.866e-05,0.0,0 STARLINK-3657,1 51990U 22025AL  24127.80667707  .00002866  00000-0  19800-3 0  9995,2 51990  53.2147 155.3155 0001330  87.6965 272.4180 15.08851150121003,6917.846,95.437,540.631,538.791,0.0
51990.0,STARLINK-3657,PAYLOAD,2024-05-07 11:15:28,15.08846309,0.0001352,53.2145,152.3418,90.4478,269.6669,7.4513e-05,8.98e-06,0.0,0 STARLINK-3657,1 51990U 22025AL  24128.46907697  .00000898  00000-0  74513-4 0  9999,2 51990  53.2145 152.3418 0001352  90.4478 269.6669 15.08846309121106,6917.861,95.437,540.661,538.791,0.0
51990.0,STARLINK-3657,PAYLOAD,2024-05-08 04:44:44,15.08803527,0.0001301,53.2156,149.0697,105.5825,254.5311,0.00044124,6.734e-05,0.0,0 STARLINK-3657,1 51990U 22025AL  24129.19773700  .00006734  00000-0  44124-3 0  9995,2 51990  53.2156 149.0697 0001301 105.5825 254.5311 15.08803527121212,6917.992,95.44,540.757,538.957,0.0
51990.0,STARLINK-3657,PAYLOAD,2024-05-08 11:06:16,15.08836047,0.0001435,53.2153,147.8806,94.7143,265.4013,-6.5042e-05,-1.323e-05,0.0,0 STARLINK-3657,1 51990U 22025AL  24129.46268598 -.00001323  00000-0 -65042-4 0  9993,2 51990  53.2153 147.8806 0001435  94.7143 265.4013 15.08836047121254,6917.892,95.438,540.75,538.765,0.0
